[{"OBJECT_NAME":"O3B FM17","OBJECT_ID":"2019-020C","EPOCH":"2026-03-13T18:30:54.460224","MEAN_MOTION":5.00115442,"ECCENTRICITY":0.00026646,"INCLINATION":0.0382,"RA_OF_ASC_NODE":342.2165,"ARG_OF_PERICENTER":5.4523,"MEAN_ANOMALY":12.3211,"EPHEMERIS_TYPE":0,"CLASSIFICATION_TYPE":"U","NORAD_CAT_ID":44114,"ELEMENT_SET_NO":999,"REV_AT_EPOCH":12675,"BSTAR":0,"MEAN_MOTION_DOT":-2.2e-7,"MEAN_MOTION_DDOT":0},{"OBJECT_NAME":"O3B FM18","OBJECT_ID":"2019-020D","EPOCH":"2026-03-15T02:48:28.378368","MEAN_MOTION":5.00115245,"ECCENTRICITY":0.00027294,"INCLINATION":0.0525,"RA_OF_ASC_NODE":0.3281,"ARG_OF_PERICENTER":354.2505,"MEAN_ANOMALY":5.4151,"EPHEMERIS_TYPE":0,"CLASSIFICATION_TYPE":"U","NORAD_CAT_ID":44115,"ELEMENT_SET_NO":999,"REV_AT_EPOCH":12694,"BSTAR":0,"MEAN_MOTION_DOT":-1.9e-7,"MEAN_MOTION_DDOT":0},{"OBJECT_NAME":"SES-17","OBJECT_ID":"2021-095A","EPOCH":"2026-03-15T01:18:16.456032","MEAN_MOTION":1.00269528,"ECCENTRICITY":9.525e-5,"INCLINATION":0.028,"RA_OF_ASC_NODE":57.7273,"ARG_OF_PERICENTER":306.6346,"MEAN_ANOMALY":120.7525,"EPHEMERIS_TYPE":0,"CLASSIFICATION_TYPE":"U","NORAD_CAT_ID":49332,"ELEMENT_SET_NO":999,"REV_AT_EPOCH":1691,"BSTAR":0,"MEAN_MOTION_DOT":-2.73e-6,"MEAN_MOTION_DDOT":0},{"OBJECT_NAME":"SES-22","OBJECT_ID":"2022-071A","EPOCH":"2026-03-15T04:23:13.718688","MEAN_MOTION":1.00273792,"ECCENTRICITY":9.874e-5,"INCLINATION":0.0175,"RA_OF_ASC_NODE":99.6203,"ARG_OF_PERICENTER":255.9997,"MEAN_ANOMALY":103.9659,"EPHEMERIS_TYPE":0,"CLASSIFICATION_TYPE":"U","NORAD_CAT_ID":52933,"ELEMENT_SET_NO":999,"REV_AT_EPOCH":658,"BSTAR":0,"MEAN_MOTION_DOT":1.03e-6,"MEAN_MOTION_DDOT":0},{"OBJECT_NAME":"SES-20","OBJECT_ID":"2022-123A","EPOCH":"2026-03-13T21:45:03.342816","MEAN_MOTION":1.00270457,"ECCENTRICITY":0.00017204,"INCLINATION":0.0192,"RA_OF_ASC_NODE":104.9887,"ARG_OF_PERICENTER":326.8603,"MEAN_ANOMALY":322.8278,"EPHEMERIS_TYPE":0,"CLASSIFICATION_TYPE":"U","NORAD_CAT_ID":53960,"ELEMENT_SET_NO":999,"REV_AT_EPOCH":1257,"BSTAR":0,"MEAN_MOTION_DOT":-1.01e-6,"MEAN_MOTION_DDOT":0},{"OBJECT_NAME":"SES-21","OBJECT_ID":"2022-123B","EPOCH":"2026-03-15T06:08:11.152896","MEAN_MOTION":1.00270508,"ECCENTRICITY":0.00010631,"INCLINATION":0.0288,"RA_OF_ASC_NODE":67.4686,"ARG_OF_PERICENTER":280.5175,"MEAN_ANOMALY":145.9027,"EPHEMERIS_TYPE":0,"CLASSIFICATION_TYPE":"U","NORAD_CAT_ID":53961,"ELEMENT_SET_NO":999,"REV_AT_EPOCH":627,"BSTAR":0,"MEAN_MOTION_DOT":6.9e-7,"MEAN_MOTION_DDOT":0},{"OBJECT_NAME":"O3B MPOWER F1","OBJECT_ID":"2022-174A","EPOCH":"2026-03-15T06:05:33.904896","MEAN_MOTION":5.00114895,"ECCENTRICITY":0.00054559,"INCLINATION":0.0635,"RA_OF_ASC_NODE":350.3812,"ARG_OF_PERICENTER":19.5992,"MEAN_ANOMALY":96.3391,"EPHEMERIS_TYPE":0,"CLASSIFICATION_TYPE":"U","NORAD_CAT_ID":54755,"ELEMENT_SET_NO":999,"REV_AT_EPOCH":6066,"BSTAR":0,"MEAN_MOTION_DOT":-1.9e-7,"MEAN_MOTION_DDOT":0},{"OBJECT_NAME":"O3B MPOWER F2","OBJECT_ID":"2022-174B","EPOCH":"2026-03-03T12:48:44.541504","MEAN_MOTION":5.00690325,"ECCENTRICITY":0.00461256,"INCLINATION":0.1272,"RA_OF_ASC_NODE":326.2177,"ARG_OF_PERICENTER":76.0907,"MEAN_ANOMALY":318.0389,"EPHEMERIS_TYPE":0,"CLASSIFICATION_TYPE":"U","NORAD_CAT_ID":54756,"ELEMENT_SET_NO":999,"REV_AT_EPOCH":6015,"BSTAR":0,"MEAN_MOTION_DOT":-2.8e-7,"MEAN_MOTION_DDOT":0},{"OBJECT_NAME":"SES-18","OBJECT_ID":"2023-038A","EPOCH":"2026-03-15T03:34:58.022688","MEAN_MOTION":1.00271883,"ECCENTRICITY":0.00020056,"INCLINATION":0.0377,"RA_OF_ASC_NODE":265.2265,"ARG_OF_PERICENTER":53.8956,"MEAN_ANOMALY":164.2649,"EPHEMERIS_TYPE":0,"CLASSIFICATION_TYPE":"U","NORAD_CAT_ID":55970,"ELEMENT_SET_NO":999,"REV_AT_EPOCH":1116,"BSTAR":0,"MEAN_MOTION_DOT":-1.02e-6,"MEAN_MOTION_DDOT":0},{"OBJECT_NAME":"SES-19","OBJECT_ID":"2023-038B","EPOCH":"2026-03-15T06:07:03.760896","MEAN_MOTION":1.00271481,"ECCENTRICITY":0.00015853,"INCLINATION":0.0515,"RA_OF_ASC_NODE":281.2053,"ARG_OF_PERICENTER":75.3458,"MEAN_ANOMALY":133.1659,"EPHEMERIS_TYPE":0,"CLASSIFICATION_TYPE":"U","NORAD_CAT_ID":55971,"ELEMENT_SET_NO":999,"REV_AT_EPOCH":1114,"BSTAR":0,"MEAN_MOTION_DOT":8.7e-7,"MEAN_MOTION_DDOT":0},{"OBJECT_NAME":"O3B MPOWER F4","OBJECT_ID":"2023-059A","EPOCH":"2026-02-17T05:46:40.580544","MEAN_MOTION":5.00119607,"ECCENTRICITY":0.00064606,"INCLINATION":0.0593,"RA_OF_ASC_NODE":7.9241,"ARG_OF_PERICENTER":334.3658,"MEAN_ANOMALY":17.6828,"EPHEMERIS_TYPE":0,"CLASSIFICATION_TYPE":"U","NORAD_CAT_ID":56367,"ELEMENT_SET_NO":999,"REV_AT_EPOCH":5260,"BSTAR":0,"MEAN_MOTION_DOT":-1.5e-7,"MEAN_MOTION_DDOT":0},{"OBJECT_NAME":"O3B MPOWER F5","OBJECT_ID":"2023-175A","EPOCH":"2026-03-14T23:02:27.981312","MEAN_MOTION":5.00115729,"ECCENTRICITY":0.00041676,"INCLINATION":0.0409,"RA_OF_ASC_NODE":5.0488,"ARG_OF_PERICENTER":355.0199,"MEAN_ANOMALY":359.9279,"EPHEMERIS_TYPE":0,"CLASSIFICATION_TYPE":"U","NORAD_CAT_ID":58346,"ELEMENT_SET_NO":999,"REV_AT_EPOCH":4472,"BSTAR":0,"MEAN_MOTION_DOT":-2.0e-7,"MEAN_MOTION_DDOT":0},{"OBJECT_NAME":"ASTRA 1P (SES-24)","OBJECT_ID":"2024-115A","EPOCH":"2026-03-12T09:20:38.613120","MEAN_MOTION":1.00269354,"ECCENTRICITY":0.0004591,"INCLINATION":0.0525,"RA_OF_ASC_NODE":348.7446,"ARG_OF_PERICENTER":336.6618,"MEAN_ANOMALY":3.9688,"EPHEMERIS_TYPE":0,"CLASSIFICATION_TYPE":"U","NORAD_CAT_ID":60086,"ELEMENT_SET_NO":999,"REV_AT_EPOCH":622,"BSTAR":0,"MEAN_MOTION_DOT":1.2e-6,"MEAN_MOTION_DDOT":0},{"OBJECT_NAME":"O3B MPOWER F7","OBJECT_ID":"2024-244A","EPOCH":"2026-03-15T03:02:47.947776","MEAN_MOTION":5.00115174,"ECCENTRICITY":0.00061064,"INCLINATION":0.0707,"RA_OF_ASC_NODE":3.5418,"ARG_OF_PERICENTER":349.2741,"MEAN_ANOMALY":7.172,"EPHEMERIS_TYPE":0,"CLASSIFICATION_TYPE":"U","NORAD_CAT_ID":62362,"ELEMENT_SET_NO":999,"REV_AT_EPOCH":2182,"BSTAR":0,"MEAN_MOTION_DOT":-1.9e-7,"MEAN_MOTION_DDOT":0},{"OBJECT_NAME":"O3B MPOWER F8","OBJECT_ID":"2024-244B","EPOCH":"2026-03-14T21:27:23.868000","MEAN_MOTION":5.00115704,"ECCENTRICITY":0.00065516,"INCLINATION":0.0488,"RA_OF_ASC_NODE":316.0416,"ARG_OF_PERICENTER":29.7203,"MEAN_ANOMALY":14.2162,"EPHEMERIS_TYPE":0,"CLASSIFICATION_TYPE":"U","NORAD_CAT_ID":62363,"ELEMENT_SET_NO":999,"REV_AT_EPOCH":1614,"BSTAR":0,"MEAN_MOTION_DOT":-2.0e-7,"MEAN_MOTION_DDOT":0}]
