O3B FM17                
1 44114U 19020C   26072.77146366 -.00000022  00000+0  00000+0 0  9996
2 44114   0.0382 342.2165 0002664   5.4523  12.3211  5.00115442126752
O3B FM18                
1 44115U 19020D   26074.11699512 -.00000019  00000+0  00000+0 0  9999
2 44115   0.0525   0.3281 0002729 354.2505   5.4151  5.00115245126948
SES-17                  
1 49332U 21095A   26074.05435713 -.00000273  00000+0  00000+0 0  9996
2 49332   0.0280  57.7273 0000952 306.6346 120.7525  1.00269528 16910
SES-22                  
1 52933U 22071A   26074.18279767  .00000103  00000+0  00000+0 0  9992
2 52933   0.0175  99.6203 0000987 255.9997 103.9659  1.00273792  6589
SES-20                  
1 53960U 22123A   26072.90628869 -.00000101  00000+0  00000+0 0  9999
2 53960   0.0192 104.9887 0001720 326.8603 322.8278  1.00270457 12575
SES-21                  
1 53961U 22123B   26074.25568464  .00000069  00000+0  00000+0 0  9996
2 53961   0.0288  67.4686 0001063 280.5175 145.9027  1.00270508  6275
O3B MPOWER F1           
1 54755U 22174A   26074.25386464 -.00000019  00000+0  00000+0 0  9998
2 54755   0.0635 350.3812 0005455  19.5992  96.3391  5.00114895 60660
O3B MPOWER F2           
1 54756U 22174B   26062.53384886 -.00000028  00000+0  00000+0 0  9993
2 54756   0.1272 326.2177 0046125  76.0907 318.0389  5.00690325 60150
SES-18                  
1 55970U 23038A   26074.14928267 -.00000102  00000+0  00000+0 0  9992
2 55970   0.0377 265.2265 0002005  53.8956 164.2649  1.00271883 11167
SES-19                  
1 55971U 23038B   26074.25490464  .00000087  00000+0  00000+0 0  9999
2 55971   0.0515 281.2053 0001585  75.3458 133.1659  1.00271481 11141
O3B MPOWER F4           
1 56367U 23059A   26048.24074746 -.00000015  00000+0  00000+0 0  9995
2 56367   0.0593   7.9241 0006460 334.3658  17.6828  5.00119607 52601
O3B MPOWER F5           
1 58346U 23175A   26073.96004608 -.00000020  00000+0  00000+0 0  9996
2 58346   0.0409   5.0488 0004167 355.0199 359.9279  5.00115729 44727
ASTRA 1P (SES-24)       
1 60086U 24115A   26071.38933580  .00000120  00000+0  00000+0 0  9999
2 60086   0.0525 348.7446 0004591 336.6618   3.9688  1.00269354  6226
O3B MPOWER F7           
1 62362U 24244A   26074.12694384 -.00000019  00000+0  00000+0 0  9990
2 62362   0.0707   3.5418 0006106 349.2741   7.1720  5.00115174 21823
O3B MPOWER F8           
1 62363U 24244B   26073.89402625 -.00000020  00000+0  00000+0 0  9991
2 62363   0.0488 316.0416 0006551  29.7203  14.2162  5.00115704 16144
